#cP2016  7 26  0  0  0.00000000      96 ORBIT IGb08 HLM  IGS
## 1907 172800.00000000   900.00000000 57595 0.0000000000000
+   32   G01G02G03G04G05G06G07G08G09G10G11G12G13G14G15G16G17
+        G18G19G20G21G22G23G24G25G26G27G28G29G30G31G32  0  0
+          0  0  0  0  0  0  0  0  0  0  0  0  0  0  0  0  0
+          0  0  0  0  0  0  0  0  0  0  0  0  0  0  0  0  0
+          0  0  0  0  0  0  0  0  0  0  0  0  0  0  0  0  0
++         2  2  2  0  2  2  2  2  1  2  2  2  2  2  2  2  2
++         2  2  2  2  2  2  0  3  2  2  2  2  2  2  2  0  0
++         0  0  0  0  0  0  0  0  0  0  0  0  0  0  0  0  0
++         0  0  0  0  0  0  0  0  0  0  0  0  0  0  0  0  0
++         0  0  0  0  0  0  0  0  0  0  0  0  0  0  0  0  0
%c G  cc GPS ccc cccc cccc cccc cccc ccccc ccccc ccccc ccccc
%c cc cc ccc ccc cccc cccc cccc cccc ccccc ccccc ccccc ccccc
%f  1.2500000  1.025000000  0.00000000000  0.000000000000000
%f  0.0000000  0.000000000  0.00000000000  0.000000000000000
%i    0    0    0    0      0      0      0      0         0
%i    0    0    0    0      0      0      0      0         0
/* FINAL ORBIT COMBINATION FROM WEIGHTED AVERAGE OF:        
/* cod emr esa gfz grg jpl mit ngs sio                      
/* REFERENCED TO IGS TIME (IGST) AND TO WEIGHTED MEAN POLE: 
/* PCV:IGS08_1904 OL/AL:FES2004  NONE     Y  ORB:CMB CLK:CMB
*  2016  7 26  3 45  0.00000000
PG01 -14282.342867  21135.760682   6841.440204     28.162361  5  7  3 117       
PG02  16436.278856  -2052.039311 -20234.152691    572.460086  5  7  4 118       
PG03 -16611.592797  13274.957978 -15908.077428    -75.903682  4  5  3 111       
PG04 -19814.251165  -8624.346222 -15823.344707 999999.999999
PG05  26491.391081  -2963.216643   -864.486154   -102.754966  6 10  3  88       
PG06  10282.113862  12807.870911 -20863.022922    223.726747  6  5  6  98       
PG07  -4384.688083  24492.698078   8813.865935    439.428824  8  9  6 115       
PG08 -14342.461423   5947.457892  21600.286361    -44.177294  7  5  5  99       
PG09   2448.532528  21359.877486 -15591.920247    174.517309  2  5  3 102       
PG10 -14550.080379 -11584.594464  19009.295180    -72.299289  4  6  4  87       
PG11 -11656.572307  18907.880540  13984.036028   -657.136879  4  8  3 114       
PG12  19317.765464 -10920.794964 -14572.226472    386.130759  8 10  5 103       
PG13  17575.052729   3659.642533  19425.999285    -33.539546  4  5  4  60       
PG14 -17851.280581 -18188.277441  -7519.047828    -26.528073  6  6  5  94       
PG15  13517.973970  -8442.965995  21138.424928   -320.878724  2  7  4  81       
PG16 -26750.824896    988.770335   -550.097627     -2.585943  4  7  6 102       
PG17  14855.228369  22140.217772    358.453822   -203.775850  5  6  5  72       
PG18  -1744.716114 -16163.455528  21549.101842    540.438308  6  4  6  69       
PG19  17946.843304  17075.377978  -9333.694827   -524.714234  5  5  6 106       
PG20  18708.450383 -13769.415666  12762.740358    426.377299  7  8  3  91       
PG21    544.474543 -24244.443370  11312.420846   -529.172080  7  6  8 134       
PG22 -22773.040050  10367.673403  -8837.530182    287.739912  7  6  5 113       
PG23  -6128.972556  15893.485055 -20063.602256   -183.633719  6  7  6  96       
PG24  15403.971051 -18849.499468  10323.860109 999999.999999
PG25   6912.750446 -14998.262686 -20886.318409   -215.259568  9  7  4 124       
PG26 -23998.727189  -4310.286529 -10585.215962   -432.705166  1  5  4 103       
PG27 -19400.540066  -6239.980509  17084.523712    119.026581  6  4  6 114       
PG28  11701.746446  13025.145788  20612.698521    539.873742  5  7  3 126       
PG29    522.194708 -20164.382603 -17300.248720    654.880988  8  9  5 109       
PG30   2298.351307  20925.675019  16123.229157    141.876899  5  7  6 106       
PG31 -12222.727744  -8928.240842 -21696.825952    256.911967  4  6  6  90       
PG32 -16500.719991 -20814.729422   -692.896477    -59.250788  5  6  5 108       
*  2016  7 26  4  0  0.00000000
PG01 -14161.190064  20160.135567   9508.656773     28.163504  5  7  4 125       
PG02  15731.640004    305.904502 -20905.639237    572.456500  5  7  4 100       
PG03 -18323.234561  13350.359319 -13830.326920    -75.906268  4  5  3 119       
PG04 -17975.384670  -8974.756384 -17713.691526 999999.999999
PG05  26290.614522  -2645.992224  -3664.165987   -102.752380  6 10  3 102       
PG06   9366.520636  14952.049810 -19842.970954    223.731425  6  5  6 103       
PG07  -4942.290010  25176.429818   6097.982712    439.426513  7  9  6 106       
PG08 -15840.137634   4038.994501  20988.752120    -44.177877  7  5  5 104       
PG09   1113.217744  20010.601299 -17429.119931    174.523814  2  5  3  88       
PG10 -12355.663450 -12044.918699  20231.460857    -72.305413  4  5  3 101       
PG11 -11979.905086  17093.291702  15849.411860   -657.137893  4  7  3 114       
PG12  20841.156064 -10930.652864 -12241.063255    386.131449  7 10  5 117       
PG13  18627.373556   5551.189049  17942.639572    -33.541898  4  5  5  99       
PG14 -18076.250476 -18921.395896  -4784.441858    -26.529493  6  6  5 110       
PG15  15128.552630  -6623.724396  20725.391480   -320.880120  3  7  4 101       
PG16 -26550.104236    832.483244  -3429.609837     -2.583806  4  6  6 100       
PG17  14600.225483  22119.689635   3225.585353   -203.775464  5  6  5 104       
PG18    572.118682 -16566.906973  21275.260946    540.441782  6  4  6 102       
PG19  18251.145243  17940.763497  -6630.111222   -524.713729  5  5  6 115       
PG20  20093.659160 -13806.092278  10435.781062    426.378751  7  9  3  97       
PG21   1168.997484 -25154.951613   8817.510942   -529.172976  8  7  8 117       
PG22 -23714.026699  10208.088315  -6248.916586    287.731592  7  7  5 114       
PG23  -7722.454213  14098.298858 -20871.615534   -183.635180  6  6  6 113       
PG24  15197.798168 -17505.005940  12723.999247 999999.999999
PG25   9198.730089 -15265.871405 -19757.348306   -215.265794  9  7  5 128       
PG26 -22704.497687  -4739.768680 -12981.617263   -432.713606  1  5  4 115       
PG27 -20452.442618  -7759.280514  15143.926363    119.030591  6  4  6 122       
PG28   9431.785073  13251.396868  21634.917261    539.876554  5  7  2 127       
PG29   1822.341295 -18552.348881 -18935.552474    654.880536  8  9  5 110       
PG30   1378.783273  22412.321396  14093.472320    141.878955  5  7  6 119       
PG31 -11203.690419 -11185.192009 -21165.238862    256.910217  4  7  6 104       
PG32 -16248.158578 -20914.990994   2156.615696    -59.261019  5  6  5 102       
*  2016  7 26  4 15  0.00000000
PG01 -13999.695365  18899.241736  12009.384085     28.164579  5  7  4 106       
PG02  15126.556610   2745.754920 -21200.926122    572.452644  6  7  3  98       
PG03 -19785.582454  13461.668620 -11514.461540    -75.908875  4  5  4 115       
PG04 -15967.170091  -9465.844066 -19306.804447 999999.999999
PG05  25802.645024  -2249.874289  -6401.600625   -102.750264  5 10  3 104       
PG06   8606.083836  17012.885432 -18481.178213    223.736190  5  4  6 106       
PG07  -5362.048645  25589.501187   3274.906406    439.423925  7  9  6 113       
PG08 -17375.569071   2278.008143  20017.825773    -44.179634  7  5  5  98       
PG09   -418.465987  18591.062685 -18966.386988    174.530325  2  5  3  93       
PG10 -10071.931242 -12644.572093  21106.681402    -72.311553  4  5  3 105       
PG11 -12390.611085  15094.021183  17430.929677   -657.139044  5  7  3 119       
PG12  22089.790780 -10980.673636  -9698.453916    386.132345  7 10  4 112       
PG13  19669.767114   7232.135237  16146.740120    -33.544044  4  5  5 105       
PG14 -18148.040678 -19391.891297  -1967.846791    -26.531605  6  7  4 102       
PG15  16772.600597  -4931.975613  19953.329479   -320.881455  4  6  4 106       
PG16 -26041.699290    619.175373  -6251.559986     -2.581711  5  5  6 103       
PG17  14142.291584  21865.917874   6038.091109   -203.775735  5  7  5  99       
PG18   2822.444643 -17069.194490  20651.763484    540.445340  6  5  6 108       
PG19  18411.287287  18539.301744  -3810.850600   -524.713601  5  4  5 111       
PG20  21213.635686 -13827.801398   7928.370553    426.381290  7  9  3 110       
PG21   1675.045999 -25820.348761   6172.955110   -529.174407  8  8  9 117       
PG22 -24371.284140  10021.596653  -3552.764119    287.723100  7  7  4 117       
PG23  -9446.864241  12332.915638 -21311.621978   -183.636419  6  5  5 108       
PG24  14985.358626 -15902.696966  14902.274633 999999.999999
PG25  11325.284570 -15627.584746 -18290.258279   -215.272027  9  7  4 122       
PG26 -21182.192661  -5293.262974 -15155.095223   -432.722178  3  5  4 100       
PG27 -21426.135905  -9045.826699  12944.027369    119.034587  5  4  6 120       
PG28   7088.074938  13622.157468  22305.344048    539.879039  6  8  2 125       
PG29   3314.539078 -16884.439121 -20245.445989    654.880016  7  9  5 110       
PG30    624.721161  23717.058690  11819.830816    141.881004  5  7  5 124       
PG31 -10332.160712 -13418.967120 -20264.121918    256.908363  5  8  6 114       
PG32 -15784.411796 -20792.378253   4969.059745    -59.271127  4  6  4 102       
EOF
